[
    {
        "Altitude(m)": 702934.7826521687,
        "Argument of Periapsis(deg)": 0.009112096949301655,
        "Eccentricity": 0.0,
        "Inclination(deg)": 45.0,
        "Latitude(deg)": 5.002846764564429,
        "Longitude(deg)": 144.3921657001844,
        "Mean Anomaly(deg)": 172.86297331798465,
        "RAAN(deg)": 69.99139844683343,
        "Satellite Name": "Constellation 1 318",
        "Satellite Number": 318,
        "Semi-Major Axis(m)": 7083131.272910544,
        "Time(s)": 152
    },
    {
        "Altitude(m)": 702937.9882112427,
        "Argument of Periapsis(deg)": 0.009172044955547059,
        "Eccentricity": 0.0,
        "Inclination(deg)": 45.0,
        "Latitude(deg)": 4.9597899147047135,
        "Longitude(deg)": 144.43124475551852,
        "Mean Anomaly(deg)": 172.92367445823453,
        "RAAN(deg)": 69.99134185766786,
        "Satellite Name": "Constellation 1 318",
        "Satellite Number": 318,
        "Semi-Major Axis(m)": 7083131.272910544,
        "Time(s)": 153
    },
    {
        "Altitude(m)": 702941.21452875,
        "Argument of Periapsis(deg)": 0.009231992961792466,
        "Eccentricity": 0.0,
        "Inclination(deg)": 45.0,
        "Latitude(deg)": 4.916730243356463,
        "Longitude(deg)": 144.47031816341334,
        "Mean Anomaly(deg)": 172.9843755984845,
        "RAAN(deg)": 69.9912852685023,
        "Satellite Name": "Constellation 1 318",
        "Satellite Number": 318,
        "Semi-Major Axis(m)": 7083131.272910544,
        "Time(s)": 154
    },
    {
        "Altitude(m)": 702944.4616089541,
        "Argument of Periapsis(deg)": 0.009291940968037872,
        "Eccentricity": 0.0,
        "Inclination(deg)": 45.0,
        "Latitude(deg)": 4.873667776088808,
        "Longitude(deg)": 144.50938597291346,
        "Mean Anomaly(deg)": 173.0450767387344,
        "RAAN(deg)": 69.99122867933673,
        "Satellite Name": "Constellation 1 318",
        "Satellite Number": 318,
        "Semi-Major Axis(m)": 7083131.272910544,
        "Time(s)": 155
    },
    {
        "Altitude(m)": 702947.7294560194,
        "Argument of Periapsis(deg)": 0.009351888974283276,
        "Eccentricity": 0.0,
        "Inclination(deg)": 45.0,
        "Latitude(deg)": 4.8306025384601465,
        "Longitude(deg)": 144.54844806495396,
        "Mean Anomaly(deg)": 173.10577787898424,
        "RAAN(deg)": 69.99117209017116,
        "Satellite Name": "Constellation 1 318",
        "Satellite Number": 318,
        "Semi-Major Axis(m)": 7083131.272910544,
        "Time(s)": 156
    },
    {
        "Altitude(m)": 702951.0180740175,
        "Argument of Periapsis(deg)": 0.00941183698052868,
        "Eccentricity": 0.0,
        "Inclination(deg)": 45.0,
        "Latitude(deg)": 4.787534556017653,
        "Longitude(deg)": 144.5875048247485,
        "Mean Anomaly(deg)": 173.16647901923417,
        "RAAN(deg)": 69.99111550100558,
        "Satellite Name": "Constellation 1 318",
        "Satellite Number": 318,
        "Semi-Major Axis(m)": 7083131.272910544,
        "Time(s)": 157
    },
    {
        "Altitude(m)": 702954.3274669306,
        "Argument of Periapsis(deg)": 0.009471784986774088,
        "Eccentricity": 0.0,
        "Inclination(deg)": 45.0,
        "Latitude(deg)": 4.74446385429856,
        "Longitude(deg)": 144.62655613320752,
        "Mean Anomaly(deg)": 173.22718015948408,
        "RAAN(deg)": 69.99105891184001,
        "Satellite Name": "Constellation 1 318",
        "Satellite Number": 318,
        "Semi-Major Axis(m)": 7083131.272910544,
        "Time(s)": 158
    },
    {
        "Altitude(m)": 702957.6576386498,
        "Argument of Periapsis(deg)": 0.009531732993019492,
        "Eccentricity": 0.0,
        "Inclination(deg)": 45.0,
        "Latitude(deg)": 4.701390458829466,
        "Longitude(deg)": 144.66560203932607,
        "Mean Anomaly(deg)": 173.28788129973395,
        "RAAN(deg)": 69.99100232267446,
        "Satellite Name": "Constellation 1 318",
        "Satellite Number": 318,
        "Semi-Major Axis(m)": 7083131.272910544,
        "Time(s)": 159
    },
    {
        "Altitude(m)": 702961.0085929742,
        "Argument of Periapsis(deg)": 0.009591680999264898,
        "Eccentricity": 0.0,
        "Inclination(deg)": 45.0,
        "Latitude(deg)": 4.658314395126509,
        "Longitude(deg)": 144.70464259208728,
        "Mean Anomaly(deg)": 173.3485824399838,
        "RAAN(deg)": 69.99094573350888,
        "Satellite Name": "Constellation 1 318",
        "Satellite Number": 318,
        "Semi-Major Axis(m)": 7083131.272910544,
        "Time(s)": 160
    },
    {
        "Altitude(m)": 702964.3803336065,
        "Argument of Periapsis(deg)": 0.009651629005510304,
        "Eccentricity": 0.0,
        "Inclination(deg)": 45.0,
        "Latitude(deg)": 4.61523568869549,
        "Longitude(deg)": 144.74367784046223,
        "Mean Anomaly(deg)": 173.40928358023382,
        "RAAN(deg)": 69.99088914434331,
        "Satellite Name": "Constellation 1 318",
        "Satellite Number": 318,
        "Semi-Major Axis(m)": 7083131.272910544,
        "Time(s)": 161
    },
    {
        "Altitude(m)": 702967.7728641632,
        "Argument of Periapsis(deg)": 0.00971157701175571,
        "Eccentricity": 0.0,
        "Inclination(deg)": 45.0,
        "Latitude(deg)": 4.57215436503233,
        "Longitude(deg)": 144.7827078334099,
        "Mean Anomaly(deg)": 173.46998472048367,
        "RAAN(deg)": 69.99083255517773,
        "Satellite Name": "Constellation 1 318",
        "Satellite Number": 318,
        "Semi-Major Axis(m)": 7083131.272910544,
        "Time(s)": 162
    },
    {
        "Altitude(m)": 702971.1861881642,
        "Argument of Periapsis(deg)": 0.009771525018001118,
        "Eccentricity": 0.0,
        "Inclination(deg)": 45.0,
        "Latitude(deg)": 4.529070449622643,
        "Longitude(deg)": 144.82173245178075,
        "Mean Anomaly(deg)": 173.5306858607336,
        "RAAN(deg)": 69.99077596601217,
        "Satellite Name": "Constellation 1 318",
        "Satellite Number": 318,
        "Semi-Major Axis(m)": 7083131.272910544,
        "Time(s)": 163
    },
    {
        "Altitude(m)": 702974.6203090384,
        "Argument of Periapsis(deg)": 0.00983147302424652,
        "Eccentricity": 0.0,
        "Inclination(deg)": 45.0,
        "Latitude(deg)": 4.485983967941636,
        "Longitude(deg)": 144.86075208070446,
        "Mean Anomaly(deg)": 173.59138700098347,
        "RAAN(deg)": 69.9907193768466,
        "Satellite Name": "Constellation 1 318",
        "Satellite Number": 318,
        "Semi-Major Axis(m)": 7083131.272910544,
        "Time(s)": 164
    },
    {
        "Altitude(m)": 702978.0752301288,
        "Argument of Periapsis(deg)": 0.009891421030491928,
        "Eccentricity": 0.0,
        "Inclination(deg)": 45.0,
        "Latitude(deg)": 4.442894945455128,
        "Longitude(deg)": 144.8997666010081,
        "Mean Anomaly(deg)": 173.65208814123335,
        "RAAN(deg)": 69.99066278768102,
        "Satellite Name": "Constellation 1 318",
        "Satellite Number": 318,
        "Semi-Major Axis(m)": 7083131.272910544,
        "Time(s)": 165
    },
    {
        "Altitude(m)": 702981.5509546747,
        "Argument of Periapsis(deg)": 0.009951369036737332,
        "Eccentricity": 0.0,
        "Inclination(deg)": 45.0,
        "Latitude(deg)": 4.3998034076189905,
        "Longitude(deg)": 144.9387760616043,
        "Mean Anomaly(deg)": 173.71278928148325,
        "RAAN(deg)": 69.99060619851545,
        "Satellite Name": "Constellation 1 318",
        "Satellite Number": 318,
        "Semi-Major Axis(m)": 7083131.272910544,
        "Time(s)": 166
    },
    {
        "Altitude(m)": 702985.0474858317,
        "Argument of Periapsis(deg)": 0.010011317042982738,
        "Eccentricity": 0.0,
        "Inclination(deg)": 45.0,
        "Latitude(deg)": 4.3567093798793195,
        "Longitude(deg)": 144.97778051139426,
        "Mean Anomaly(deg)": 173.77349042173313,
        "RAAN(deg)": 69.9905496093499,
        "Satellite Name": "Constellation 1 318",
        "Satellite Number": 318,
        "Semi-Major Axis(m)": 7083131.272910544,
        "Time(s)": 167
    },
    {
        "Altitude(m)": 702988.564826659,
        "Argument of Periapsis(deg)": 0.010071265049228144,
        "Eccentricity": 0.0,
        "Inclination(deg)": 45.0,
        "Latitude(deg)": 4.313612887672547,
        "Longitude(deg)": 145.01677999926792,
        "Mean Anomaly(deg)": 173.8341915619831,
        "RAAN(deg)": 69.99049302018432,
        "Satellite Name": "Constellation 1 318",
        "Satellite Number": 318,
        "Semi-Major Axis(m)": 7083131.272910544,
        "Time(s)": 168
    },
    {
        "Altitude(m)": 702992.1029801313,
        "Argument of Periapsis(deg)": 0.01013121305547355,
        "Eccentricity": 0.0,
        "Inclination(deg)": 45.0,
        "Latitude(deg)": 4.270513956425685,
        "Longitude(deg)": 145.05577457410402,
        "Mean Anomaly(deg)": 173.89489270223297,
        "RAAN(deg)": 69.99043643101875,
        "Satellite Name": "Constellation 1 318",
        "Satellite Number": 318,
        "Semi-Major Axis(m)": 7083131.272910544,
        "Time(s)": 169
    },
    {
        "Altitude(m)": 702995.6619491148,
        "Argument of Periapsis(deg)": 0.010191161061718957,
        "Eccentricity": 0.0,
        "Inclination(deg)": 45.0,
        "Latitude(deg)": 4.227412611556109,
        "Longitude(deg)": 145.09476428477032,
        "Mean Anomaly(deg)": 173.95559384248284,
        "RAAN(deg)": 69.99037984185318,
        "Satellite Name": "Constellation 1 318",
        "Satellite Number": 318,
        "Semi-Major Axis(m)": 7083131.272910544,
        "Time(s)": 170
    }
]